IRIDIUM 36              
1 24967U 97056C   24117.72690198  .00001182  00000+0  39440-3 0  9996
2 24967  86.3990 347.9039 0002016  86.5433 273.5994 14.36753269392401
IRIDIUM 39              
1 25042U 97069D   24117.80011975  .00001851  00000+0  49399-3 0  9991
2 25042  86.3964  29.5354 0016022 254.5151 105.4283 14.47881807388687
IRIDIUM 38              
1 25043U 97069E   24117.54177858  .00001494  00000+0  49589-3 0  9990
2 25043  86.3986  48.3525 0003526  59.7412 300.4134 14.37204397386098
IRIDIUM 42              
1 25077U 97077A   24117.32442677  .00001355  00000+0  46465-3 0  9992
2 25077  86.3981  54.1026 0002736  76.7848 283.3653 14.35508907381378
IRIDIUM 44              
1 25078U 97077B   24117.84008943  .00001448  00000+0  46013-3 0  9996
2 25078  86.3997  36.9323 0001811  32.3426 327.7883 14.39341325383796
IRIDIUM 45              
1 25104U 97082A   24118.07574950  .00026038  00000+0  14792-2 0  9994
2 25104  86.3740 246.2093 0164432  65.7557 296.0757 15.01931393389431
IRIDIUM 24              
1 25105U 97082B   24118.13056059  .00001762  00000+0  54067-3 0  9994
2 25105  86.3892 256.4776 0011992  22.0822 338.0892 14.41111207383522
IRIDIUM 51              
1 25262U 98018A   24118.09921300  .00025588  00000+0  12202-2 0  9999
2 25262  86.3964 256.1674 0149310  11.6375 348.8248 15.09542047383926
